NORAD_CAT_ID,OBJECT_NAME,OBJECT_TYPE,EPOCH,MEAN_MOTION,ECCENTRICITY,INCLINATION,RA_OF_ASC_NODE,ARG_OF_PERICENTER,MEAN_ANOMALY,BSTAR,MEAN_MOTION_DOT,MEAN_MOTION_DDOT,TLE_LINE0,TLE_LINE1,TLE_LINE2,SEMIMAJOR_AXIS,PERIOD,APOGEE,PERIGEE,DECAYED
54205.0,STARLINK-5249,PAYLOAD,2023-01-26 22:00:00,15.08813491,0.0001281999999999,53.2133,61.4228,92.8957,56.8196,0.0034603,0.00055174,0.0,0 STARLINK-5249,1 54205U 22141BA  23026.91667824  .00055174  00000-0  34603-2 0  9992,2 54205  53.2133  61.4228 0001282  92.8957  56.8196 15.08813491 14461,6917.960999999999,95.439,540.7130000000001,538.94,0.0
54205.0,STARLINK-5249,PAYLOAD,2023-01-27 14:00:01,15.0880079,0.0001103,53.2136,58.4313,86.2351,86.6871,0.0017969,0.00028395,0.0,0 STARLINK-5249,1 54205U 22141BA  23027.58334491  .00028395  00000-0  17969-2 0  9998,2 54205  53.2136  58.4313 0001103  86.2351  86.6871 15.08800790 14562,6918.0,95.44,540.628,539.102,0.0
54205.0,STARLINK-5249,PAYLOAD,2023-01-27 22:00:00,15.08795621,0.0001087,53.214,56.9331,98.2976,86.1923,0.0035609,0.00056771,0.0,0 STARLINK-5249,1 54205U 22141BA  23027.91667824  .00056771  00000-0  35609-2 0  9994,2 54205  53.2140  56.9331 0001087  98.2976  86.1923 15.08795621  1304,6918.016,95.44,540.633,539.129,0.0
54205.0,STARLINK-5249,PAYLOAD,2023-01-28 14:00:01,15.08818567,0.0001161,53.2148,53.9419,78.9583,128.6928,0.0018198,0.00028776,0.0,0 STARLINK-5249,1 54205U 22141BA  23028.58334491  .00028776  00000-0  18198-2 0  9997,2 54205  53.2148  53.9419 0001161  78.9583 128.6928 15.08818567 14720,6917.946,95.439,540.614,539.008,0.0
54205.0,STARLINK-5249,PAYLOAD,2023-01-28 22:00:00,15.08811496,0.0001115,53.2151,52.4438,91.5496,127.6889,0.0036013,0.00057449,0.0,0 STARLINK-5249,1 54205U 22141BA  23028.91667824  .00057449  00000-0  36013-2 0  9998,2 54205  53.2151  52.4438 0001115  91.5496 127.6889 15.08811496  1301,6917.968,95.439,540.604,539.061,0.0
54205.0,STARLINK-5249,PAYLOAD,2023-01-29 06:34:15,15.08840045,0.0001443,53.215,50.8397,109.4639,250.6509,-1.8673e-05,-5.85e-06,0.0,0 STARLINK-5249,1 54205U 22141BA  23029.27379487 -.00000585  00000-0 -18673-4 0  9998,2 54205  53.2150  50.8397 0001443 109.4639 250.6509 15.08840045 14827,6917.88,95.438,540.744,538.747,0.0
54205.0,STARLINK-5249,PAYLOAD,2023-01-30 08:00:26,15.0883872,0.0001206,53.2153,46.0821,102.4784,257.6343,6.1066e-05,6.84e-06,0.0,0 STARLINK-5249,1 54205U 22141BA  23030.33363543  .00000684  00000-0  61066-4 0  9995,2 54205  53.2153  46.0821 0001206 102.4784 257.6343 15.08838720 14987,6917.884,95.438,540.584,538.915,0.0
54205.0,STARLINK-5249,PAYLOAD,2023-01-30 15:57:22,15.08836046,0.0001226,53.2153,44.5949,102.3384,257.7746,3.7404e-05,3.07e-06,0.0,0 STARLINK-5249,1 54205U 22141BA  23030.66483825  .00000307  00000-0  37404-4 0  9998,2 54205  53.2153  44.5949 0001226 102.3384 257.7746 15.08836046 14806,6917.892,95.438,540.606,538.909,0.0
54205.0,STARLINK-5249,PAYLOAD,2023-01-31 01:29:41,15.08832493,0.0001422,53.2172,42.8132,106.2097,253.9051,-4.3652e-05,-9.82e-06,0.0,0 STARLINK-5249,1 54205U 22141BA  23031.06228526 -.00000982  00000-0 -43652-4 0  9991,2 54205  53.2172  42.8132 0001422 106.2097 253.9051 15.08832493 15095,6917.903,95.438,540.752,538.785,0.0
54205.0,STARLINK-5249,PAYLOAD,2023-01-31 09:26:36,15.088353,0.0001221,53.216,41.3245,102.0902,258.0227,-2.8901e-05,-7.48e-06,0.0,0 STARLINK-5249,1 54205U 22141BA  23031.39348297 -.00000748  00000-0 -28901-4 0  9995,2 54205  53.2160  41.3245 0001221 102.0902 258.0227 15.08835300 14918,6917.895,95.438,540.604,538.915,0.0
54205.0,STARLINK-5249,PAYLOAD,2023-02-01 01:20:28,15.08838511,0.0001301,53.2164,38.3511,101.5311,258.5827,-2.0058e-05,-6.07e-06,0.0,0 STARLINK-5249,1 54205U 22141BA  23032.05588228 -.00000607  00000-0 -20058-4 0  9998,2 54205  53.2164  38.3511 0001301 101.5311 258.5827 15.08838511 15246,6917.885,95.438,540.65,538.85,0.0
54205.0,STARLINK-5249,PAYLOAD,2023-02-01 09:17:23,15.088434,0.0001365,53.2164,36.8634,96.6865,263.4283,1.8978e-05,1.4e-07,0.0,0 STARLINK-5249,1 54205U 22141BA  23032.38707795  .00000014  00000-0  18978-4 0  9994,2 54205  53.2164  36.8634 0001365  96.6865 263.4283 15.08843400 15067,6917.87,95.437,540.679,538.791,0.0
54205.0,STARLINK-5249,PAYLOAD,2023-02-02 01:11:15,15.08832282,0.0001277,53.2167,33.8904,95.6667,264.447,3.8052e-05,3.18e-06,0.0,0 STARLINK-5249,1 54205U 22141BA  23033.04948488  .00000318  00000-0  38052-4 0  9996,2 54205  53.2167  33.8904 0001277  95.6667 264.4470 15.08832282 15399,6917.904,95.438,540.652,538.886,0.0
54205.0,STARLINK-5249,PAYLOAD,2023-02-02 09:08:10,15.08839641,0.0001348,53.216,32.4027,95.0664,265.0482,7.4645e-06,-1.69e-06,0.0,0 STARLINK-5249,1 54205U 22141BA  23033.38068252 -.00000169  00000-0  74645-5 0  9999,2 54205  53.2160  32.4027 0001348  95.0664 265.0482 15.08839641 15210,6917.881,95.438,540.679,538.814,0.0
54205.0,STARLINK-5249,PAYLOAD,2023-02-03 08:58:57,15.08845195,0.000137,53.2161,27.9425,94.8513,265.2636,3.909e-05,3.34e-06,0.0,0 STARLINK-5249,1 54205U 22141BA  23034.37427707  .00000334  00000-0  39090-4 0  9990,2 54205  53.2161  27.9425 0001370  94.8513 265.2636 15.08845195 15592,6917.865,95.437,540.677,538.782,0.0
54205.0,STARLINK-5249,PAYLOAD,2023-02-04 08:49:44,15.08840938,0.0001354,53.2163,23.4816,86.6828,273.4319,2.5776e-05,1.22e-06,0.0,0 STARLINK-5249,1 54205U 22141BA  23035.36788074  .00000122  00000-0  25776-4 0  9998,2 54205  53.2163  23.4816 0001354  86.6828 273.4319 15.08840938 15745,6917.878,95.437,540.679,538.806,0.0
54205.0,STARLINK-5249,PAYLOAD,2023-02-05 08:40:32,15.08840908,0.0001553,53.2177,19.0193,107.4542,252.662,-3.6791e-05,-8.74e-06,0.0,0 STARLINK-5249,1 54205U 22141BA  23036.36148255 -.00000874  00000-0 -36791-4 0  9995,2 54205  53.2177  19.0193 0001553 107.4542 252.6620 15.08840908 15667,6917.878,95.437,540.817,538.668,0.0
54205.0,STARLINK-5249,PAYLOAD,2023-02-06 03:45:10,15.0883626,0.0001397,53.2178,15.4516,91.5693,268.5459,-3.2795e-05,-8.1e-06,0.0,0 STARLINK-5249,1 54205U 22141BA  23037.15636725 -.00000810  00000-0 -32795-4 0  9997,2 54205  53.2178  15.4516 0001397  91.5693 268.5459 15.08836260 16015,6917.892,95.438,540.723,538.79,0.0
54205.0,STARLINK-5249,PAYLOAD,2023-02-06 08:31:19,15.08838224,0.0001407,53.2181,14.5591,93.2955,266.8198,1.0356e-05,-1.23e-06,0.0,0 STARLINK-5249,1 54205U 22141BA  23037.35508473 -.00000123  00000-0  10356-4 0  9992,2 54205  53.2181  14.5591 0001407  93.2955 266.8198 15.08838224 15814,6917.886,95.438,540.724,538.777,0.0
54205.0,STARLINK-5249,PAYLOAD,2023-02-07 03:35:56,15.08843718,0.0001362,53.2182,10.9909,97.4058,262.7089,1.6326e-05,-2.8e-07,0.0,0 STARLINK-5249,1 54205U 22141BA  23038.14996075 -.00000028  00000-0  16326-4 0  9996,2 54205  53.2182  10.9909 0001362  97.4058 262.7089 15.08843718 16165,6917.869,95.437,540.676,538.792,0.0
54205.0,STARLINK-5249,PAYLOAD,2023-02-07 06:46:42,15.08854068,0.0001174,53.2174,10.3976,82.5909,277.5217,0.00012021,1.627e-05,0.0,0 STARLINK-5249,1 54205U 22141BA  23038.28243113  .00001627  00000-0  12021-3 0  9991,2 54205  53.2174  10.3976 0001174  82.5909 277.5217 15.08854068 16184,6917.837,95.437,540.515,538.89,0.0
54205.0,STARLINK-5249,PAYLOAD,2023-02-08 05:02:05,15.08856135,0.0001065,53.2173,6.2344,100.0683,260.0429,0.0001076,1.426e-05,0.0,0 STARLINK-5249,1 54205U 22141BA  23039.20979030  .00001426  00000-0  10760-3 0  9993,2 54205  53.2173   6.2344 0001065 100.0683 260.0429 15.08856135 16325,6917.831,95.437,540.433,538.959,0.0
54205.0,STARLINK-5249,PAYLOAD,2023-02-09 03:17:31,15.08842295,0.0001209,53.218,2.0728,96.8729,263.2401,-0.00012,-2.197e-05,0.0,0 STARLINK-5249,1 54205U 22141BA  23040.13716719 -.00002197  00000-0 -12000-3 0  9997,2 54205  53.2180   2.0728 0001209  96.8729 263.2401 15.08842295 16468,6917.873,95.437,540.575,538.902,0.0
54205.0,STARLINK-5249,PAYLOAD,2023-02-09 08:03:40,15.08848131,0.0001071,53.2172,1.1803,96.8081,263.3032,-0.00011179,-2.067e-05,0.0,0 STARLINK-5249,1 54205U 22141BA  23040.33588321 -.00002067  00000-0 -11179-3 0  9997,2 54205  53.2172   1.1803 0001071  96.8081 263.3032 15.08848131 16265,6917.856,95.437,540.461,538.98,0.0
54205.0,STARLINK-5249,PAYLOAD,2023-02-10 03:08:18,15.0883303,0.0001251,53.2186,357.6125,74.289,285.824,1.1106e-06,-2.7e-06,0.0,0 STARLINK-5249,1 54205U 22141BA  23041.13077242 -.00000270  00000-0  11106-5 0  9996,2 54205  53.2186 357.6125 0001251  74.2890 285.8240 15.08833030 16389,6917.902,95.438,540.632,538.901,0.0
54205.0,STARLINK-5249,PAYLOAD,2023-02-10 04:43:40,15.08858256,0.0001059,53.218,357.3172,89.9196,270.1918,8.45e-05,1.058e-05,0.0,0 STARLINK-5249,1 54205U 22141BA  23041.19699444  .00001058  00000-0  84500-4 0  9997,2 54205  53.2180 357.3172 0001059  89.9196 270.1918 15.08858256 16623,6917.825,95.436,540.422,538.957,0.0
54205.0,STARLINK-5249,PAYLOAD,2023-02-11 02:59:04,15.08846723,0.0001286,53.2193,353.1515,63.6531,296.4593,5.6091e-05,6.05e-06,0.0,0 STARLINK-5249,1 54205U 22141BA  23042.12436074  .00000605  00000-0  56091-4 0  9990,2 54205  53.2193 353.1515 0001286  63.6531 296.4593 15.08846723 16767,6917.86,95.437,540.614,538.835,0.0
54205.0,STARLINK-5249,PAYLOAD,2023-02-11 20:28:19,15.08846025,8.89e-05,53.2182,349.8816,57.9486,302.1593,-0.0001178,-2.162e-05,0.0,0 STARLINK-5249,1 54205U 22141BA  23042.85300781 -.00002162  00000-0 -11780-3 0  9992,2 54205  53.2182 349.8816 0000889  57.9486 302.1593 15.08846025 16641,6917.862,95.437,540.342,539.112,0.0
54205.0,STARLINK-5249,PAYLOAD,2023-02-12 07:36:00,15.08862895,0.0001118,53.2182,347.7994,75.1224,284.9892,1.5565e-05,-4e-07,0.0,0 STARLINK-5249,1 54205U 22141BA  23043.31666783 -.00000040  00000-0  15565-4 0  9999,2 54205  53.2182 347.7994 0001118  75.1224 284.9892 15.08862895 16948,6917.81,95.436,540.449,538.902,0.0
54205.0,STARLINK-5249,PAYLOAD,2023-02-13 05:51:24,15.08855325,0.0001542,53.2184,343.6365,65.3561,294.7591,-0.00014226,-2.552e-05,0.0,0 STARLINK-5249,1 54205U 22141BA  23044.24403532 -.00002552  00000-0 -14226-3 0  9996,2 54205  53.2184 343.6365 0001542  65.3561 294.7591 15.08855325 17084,6917.834,95.437,540.765,538.632,0.0
